NORAD_CAT_ID,OBJECT_NAME,OBJECT_TYPE,EPOCH,MEAN_MOTION,ECCENTRICITY,INCLINATION,RA_OF_ASC_NODE,ARG_OF_PERICENTER,MEAN_ANOMALY,BSTAR,MEAN_MOTION_DOT,MEAN_MOTION_DDOT,TLE_LINE0,TLE_LINE1,TLE_LINE2,SEMIMAJOR_AXIS,PERIOD,APOGEE,PERIGEE,DECAYED
51793.0,STARLINK-3633,PAYLOAD,2022-07-11 06:00:00,15.08861092,0.0002158,53.2168,233.1158,46.1924,247.0463,-0.0013861,-0.00022294,0.0,0 STARLINK-3633,1 51793U 22017AB  22192.25001157 -.00022294  00000-0 -13861-2 0  9996,2 51793  53.2168 233.1158 0002158  46.1924 247.0463 15.08861092 22052,6917.816,95.436,541.174,538.188,0.0
51793.0,STARLINK-3633,PAYLOAD,2022-07-11 14:00:01,15.088302,0.0002299,53.2164,231.6206,41.9789,262.8714,0.0025292,0.00040184,0.0,0 STARLINK-3633,1 51793U 22017AB  22192.58334491  .00040184  00000-0  25292-2 0  9999,2 51793  53.2164 231.6206 0002299  41.9789 262.8714 15.08830200  1309,6917.91,95.438,541.366,538.185,0.0
51793.0,STARLINK-3633,PAYLOAD,2022-07-11 22:00:00,15.08842498,0.0002084,53.2166,230.1225,45.8864,270.5719,0.00048631,7.461e-05,0.0,0 STARLINK-3633,1 51793U 22017AB  22192.91667824  .00007461  00000-0  48631-3 0  9999,2 51793  53.2166 230.1225 0002084  45.8864 270.5719 15.08842498  1308,6917.873000000001,95.437,541.179,538.2959999999998,0.0
51793.0,STARLINK-3633,PAYLOAD,2022-07-12 06:00:00,15.08853641,0.0002111,53.2166,228.6269,44.9035,283.1555,-0.0024138,-0.00038514,0.0,0 STARLINK-3633,1 51793U 22017AB  22193.25001157 -.00038514  00000-0 -24138-2 0  9998,2 51793  53.2166 228.6269 0002111  44.9035 283.1555 15.08853641 22201,6917.839,95.437,541.164,538.243,0.0
51793.0,STARLINK-3633,PAYLOAD,2022-07-12 14:00:01,15.08822038,0.0002224,53.216,227.1315,40.5757,299.0842,0.002186,0.00034657,0.0,0 STARLINK-3633,1 51793U 22017AB  22193.58334491  .00034657  00000-0  21860-2 0  9995,2 51793  53.2160 227.1315 0002224  40.5757 299.0842 15.08822038  1308,6917.935,95.439,541.339,538.262,0.0
51793.0,STARLINK-3633,PAYLOAD,2022-07-12 22:00:00,15.08819497,0.0002023,53.216,225.6334,45.7129,305.5451,0.002592,0.00041182,0.0,0 STARLINK-3633,1 51793U 22017AB  22193.91667824  .00041182  00000-0  25920-2 0  9993,2 51793  53.2160 225.6334 0002023  45.7129 305.5451 15.08819497 22306,6917.943,95.439,541.2080000000002,538.409,0.0
51793.0,STARLINK-3633,PAYLOAD,2022-07-13 14:00:01,15.08846171,0.000218,53.2154,222.6423,40.3522,334.0967,-0.0012684,-0.00020422,0.0,0 STARLINK-3633,1 51793U 22017AB  22194.58334491 -.00020422  00000-0 -12684-2 0  9997,2 51793  53.2154 222.6423 0002180  40.3522 334.0967 15.08846171  1302,6917.861999999999,95.437,541.235,538.2180000000002,0.0
51793.0,STARLINK-3633,PAYLOAD,2022-07-13 16:00:00,15.08856209,0.0002151,53.2153,222.2678,41.3587,65.987,-0.0032888,-0.00052275,0.0,0 STARLINK-3633,1 51793U 22017AB  22194.66667824 -.00052275  00000-0 -32888-2 0  9994,2 51793  53.2153 222.2678 0002151  41.3587  65.9870 15.08856209 22421,6917.831,95.437,541.184,538.2080000000002,0.0
51793.0,STARLINK-3633,PAYLOAD,2022-07-13 22:00:00,15.08799652,0.0001941,53.2153,221.1442,44.8676,341.1843,0.0026936,0.00042794,0.0,0 STARLINK-3633,1 51793U 22017AB  22194.91667824  .00042794  00000-0  26936-2 0  9992,2 51793  53.2153 221.1442 0001941  44.8676 341.1843 15.08799652  1302,6918.004,95.44,541.212,538.526,0.0
51793.0,STARLINK-3633,PAYLOAD,2022-07-14 08:00:01,15.08832359,0.0002137,53.2151,219.2753,43.5124,87.0009,-0.0010907,-0.00017602,0.0,0 STARLINK-3633,1 51793U 22017AB  22195.33334491 -.00017602  00000-0 -10907-2 0  9993,2 51793  53.2151 219.2753 0002137  43.5124  87.0009 15.08832359 22524,6917.904,95.438,541.247,538.29,0.0
51793.0,STARLINK-3633,PAYLOAD,2022-07-14 14:00:01,15.08818949,0.000217,53.2148,218.1531,40.6887,8.5044,0.00099193,0.00015525,0.0,0 STARLINK-3633,1 51793U 22017AB  22195.58334491  .00015525  00000-0  99193-3 0  9995,2 51793  53.2148 218.1531 0002170  40.6887   8.5044 15.08818949  1302,6917.945,95.439,541.311,538.309,0.0
51793.0,STARLINK-3633,PAYLOAD,2022-07-14 22:00:00,15.08803889,0.0001986,53.2147,216.655,46.3101,14.469,0.0026829,0.00042627,0.0,0 STARLINK-3633,1 51793U 22017AB  22195.91667824  .00042627  00000-0  26829-2 0  9999,2 51793  53.2147 216.6550 0001986  46.3101  14.4690 15.08803889  1301,6917.991,95.44,541.23,538.482,0.0
51793.0,STARLINK-3633,PAYLOAD,2022-07-15 06:00:00,15.08844092,0.0002138,53.2148,215.1599,45.4857,26.8622,-0.0019376,-0.00030997,0.0,0 STARLINK-3633,1 51793U 22017AB  22196.25001157 -.00030997  00000-0 -19376-2 0  9996,2 51793  53.2148 215.1599 0002138  45.4857  26.8622 15.08844092 22662,6917.868,95.437,541.212,538.254,0.0
51793.0,STARLINK-3633,PAYLOAD,2022-07-15 14:00:01,15.08828431,0.000223,53.2146,213.6638,41.8595,42.0736,0.00063535,9.835e-05,0.0,0 STARLINK-3633,1 51793U 22017AB  22196.58334491  .00009835  00000-0  63535-3 0  9994,2 51793  53.2146 213.6638 0002230  41.8595  42.0736 15.08828431  1302,6917.916,95.438,541.323,538.238,0.0
51793.0,STARLINK-3633,PAYLOAD,2022-07-15 22:00:00,15.08811822,0.0002067,53.2147,212.1656,47.1804,48.3468,0.00267,0.00042429,0.0,0 STARLINK-3633,1 51793U 22017AB  22196.91667824  .00042429  00000-0  26700-2 0  9998,2 51793  53.2147 212.1656 0002067  47.1804  48.3468 15.08811822 22767,6917.967,95.439,541.261,538.4019999999998,0.0
51793.0,STARLINK-3633,PAYLOAD,2022-07-16 14:00:01,15.08839818,0.0002323,53.2149,209.1743,43.0194,75.6783,0.0002158,3.148e-05,0.0,0 STARLINK-3633,1 51793U 22017AB  22197.58334491  .00003148  00000-0  21580-3 0  9990,2 51793  53.2149 209.1743 0002323  43.0194  75.6783 15.08839818 22863,6917.880999999999,95.438,541.3530000000002,538.139,0.0
51793.0,STARLINK-3633,PAYLOAD,2022-07-16 22:00:00,15.08823477,0.0002173,53.2153,207.6762,48.1153,82.1887,0.0026267,0.00041746,0.0,0 STARLINK-3633,1 51793U 22017AB  22197.91667824  .00041746  00000-0  26267-2 0  9998,2 51793  53.2153 207.6762 0002173  48.1153  82.1887 15.08823477  1304,6917.931,95.439,541.299,538.293,0.0
51793.0,STARLINK-3633,PAYLOAD,2022-07-17 14:00:01,15.08856161,0.000242,53.2156,204.6849,44.6261,108.8745,-0.00021891,-3.772e-05,0.0,0 STARLINK-3633,1 51793U 22017AB  22198.58334491 -.00003772  00000-0 -21891-3 0  9991,2 51793  53.2156 204.6849 0002420  44.6261 108.8745 15.08856161  1301,6917.831,95.437,541.37,538.0219999999998,0.0
51793.0,STARLINK-3633,PAYLOAD,2022-07-17 22:00:00,15.08866285,0.0002233,53.2165,203.1858,48.522,116.5918,-0.0027167,-0.00043298,0.0,0 STARLINK-3633,1 51793U 22017AB  22198.91667824 -.00043298  00000-0 -27167-2 0  9995,2 51793  53.2165 203.1858 0002233  48.5220 116.5918 15.08866285 23068,6917.8,95.436,541.21,538.12,0.0
51793.0,STARLINK-3633,PAYLOAD,2022-07-18 14:00:01,15.08841605,0.0002411,53.2163,200.1955,44.346,143.9698,-0.0009026,-0.00014626,0.0,0 STARLINK-3633,1 51793U 22017AB  22199.58334491 -.00014626  00000-0 -90260-3 0  9998,2 51793  53.2163 200.1955 0002411  44.3460 143.9698 15.08841605  1300,6917.875,95.437,541.408,538.073,0.0
51793.0,STARLINK-3633,PAYLOAD,2022-07-18 16:00:00,15.08850481,0.000235,53.2165,199.821,45.4223,235.7889,-0.0023241,-0.00037099,0.0,0 STARLINK-3633,1 51793U 22017AB  22199.66667824 -.00037099  00000-0 -23241-2 0  9999,2 51793  53.2165 199.8210 0002350  45.4223 235.7889 15.08850481 23174,6917.848000000001,95.437,541.339,538.0880000000002,0.0
51793.0,STARLINK-3633,PAYLOAD,2022-07-18 22:00:00,15.08818532,0.0002265,53.2166,198.6977,49.2477,150.6634,0.0022391,0.00035507,0.0,0 STARLINK-3633,1 51793U 22017AB  22199.91667824  .00035507  00000-0  22391-2 0  9992,2 51793  53.2166 198.6977 0002265  49.2477 150.6634 15.08818532  1305,6917.946,95.439,541.378,538.244,0.0
51793.0,STARLINK-3633,PAYLOAD,2022-07-19 06:00:00,15.08844473,0.0002441,53.2168,197.203,47.0983,164.4026,-0.00095561,-0.00015467,0.0,0 STARLINK-3633,1 51793U 22017AB  22200.25001157 -.00015467  00000-0 -95561-3 0  9998,2 51793  53.2168 197.2030 0002441  47.0983 164.4026 15.08844473 23266,6917.8669999999975,95.437,541.42,538.043,0.0
51793.0,STARLINK-3633,PAYLOAD,2022-07-19 14:00:01,15.08856601,0.0002438,53.2167,195.7064,46.362,176.7307,-0.0014337,-0.00023045,0.0,0 STARLINK-3633,1 51793U 22017AB  22200.58334491 -.00023045  00000-0 -14337-2 0  9996,2 51793  53.2167 195.7064 0002438  46.3620 176.7307 15.08856601  1306,6917.83,95.437,541.381,538.008,0.0
51793.0,STARLINK-3633,PAYLOAD,2022-07-19 22:00:00,15.08847752,0.0002262,53.217,194.207,46.7948,187.9088,-0.006418,-0.00101027,0.0,0 STARLINK-3633,1 51793U 22017AB  22200.91667824 -.00101027  00000-0 -64180-2 0  9990,2 51793  53.2170 194.2070 0002262  46.7948 187.9088 15.08847752  1300,6917.857,95.437,541.2869999999998,538.1569999999998,0.0
51793.0,STARLINK-3633,PAYLOAD,2022-07-20 06:00:00,15.08842616,0.0002395,53.2168,192.71400000000003,47.2848,199.0332,-0.0014562999999999,-0.00023393,0.0,0 STARLINK-3633,1 51793U 22017AB  22201.25001157 -.00023393  00000-0 -14563-2 0  9998,2 51793  53.2168 192.7140 0002395  47.2848 199.0332 15.08842616 23416,6917.871999999999,95.437,541.394,538.081,0.0
51793.0,STARLINK-3633,PAYLOAD,2022-07-20 14:00:01,15.08850171,0.0002346999999999,53.2165,191.2173,46.6474,211.2526,-0.0016999,-0.00027249,0.0,0 STARLINK-3633,1 51793U 22017AB  22201.58334491 -.00027249  00000-0 -16999-2 0  9993,2 51793  53.2165 191.2173 0002347  46.6474 211.2526 15.08850171  1309,6917.849,95.437,541.3380000000002,538.091,0.0
51793.0,STARLINK-3633,PAYLOAD,2022-07-20 22:00:01,15.0882356,0.00022,53.2166,189.7197,51.827,217.7305,0.0021366,0.00033865,0.0,0 STARLINK-3633,1 51793U 22017AB  22201.91668981  .00033865  00000-0  21366-2 0  9997,2 51793  53.2166 189.7197 0002200  51.8270 217.7305 15.08823560 23513,6917.931,95.439,541.318,538.274,0.0
51793.0,STARLINK-3633,PAYLOAD,2022-07-21 08:00:01,15.08818906,0.0002356999999999,53.2165,187.8515,47.2169,326.7749,-0.00025297,-4.31e-05,0.0,0 STARLINK-3633,1 51793U 22017AB  22202.33334491 -.00004310  00000-0 -25297-3 0  9993,2 51793  53.2165 187.8515 0002357  47.2169 326.7749 15.08818906 23582,6917.945,95.439,541.44,538.179,0.0
